OSCAR 7 (AO-7)          
1 07530U 74089B   26183.48564858 -.00000043  00000+0  23671-4 0  9991
2 07530 101.9899 196.8917 0012660 101.7841  56.6522 12.53698362362431
PHASE 3B (AO-10)        
1 14129U 83058B   26182.45083748 -.00000048  00000+0  00000+0 0  9990
2 14129  25.9245 217.2087 6005973 119.5898 312.7847  2.05870235295789
UOSAT 2 (UO-11)         
1 14781U 84021B   26183.45749264  .00001662  00000+0  17450-3 0  9991
2 14781  97.8066 148.8624 0008792 126.6044 233.5984 14.90823192259404
LUSAT (LO-19)           
1 20442U 90005G   26183.53106192  .00000138  00000+0  65860-4 0  9993
2 20442  98.8845 205.7592 0011987 156.2041 203.9699 14.34127832904591
EYESAT A (AO-27)        
1 22825U 93061C   26183.59287117  .00000133  00000+0  67579-4 0  9992
2 22825  98.6875 251.0004 0009336  59.8657 300.3450 14.30946419709201
ITAMSAT (IO-26)         
1 22826U 93061D   26183.14826960  .00000118  00000+0  61280-4 0  9995
2 22826  98.6822 250.4751 0009661  45.6293 314.5680 14.31373513709455
RADIO ROSTO (RS15)      
1 23439U 94085A   26183.63657220 -.00000013  00000+0  83577-3 0  9995
2 23439  64.8179 278.2310 0156463   1.0199 359.1016 11.27583484297642
JAS-2 (FO-29)           
1 24278U 96046B   26183.46748802 -.00000028  00000+0  56481-5 0  9996
2 24278  98.5226  30.2454 0350788  56.8950 306.5350 13.53274944475234
TECHSAT 1B (GO-32)      
1 25397U 98043D   26183.44759188  .00000060  00000+0  46153-4 0  9994
2 25397  99.0074 176.5914 0001766 135.3675 224.7645 14.24431385453502
ISS (ZARYA)             
1 25544U 98067A   26182.50817465  .00006185  00000+0  11827-3 0  9996
2 25544  51.6311 229.1989 0004224 255.0896 104.9625 15.49503254573972
PCSAT (NO-44)           
1 26931U 01043C   26183.45542852  .00000104  00000+0  69838-4 0  9996
2 26931  67.0489 204.7811 0006017 265.5934  94.4481 14.31961164292636
SAUDISAT 1C (SO-50)     
1 27607U 02058C   26183.32741954  .00001045  00000+0  14035-3 0  9997
2 27607  64.5520  82.1417 0074891 259.6484  99.6174 14.83078536266708
CUTE-1 (CO-55)          
1 27844U 03031E   26182.99996152  .00000303  00000+0  15002-3 0  9997
2 27844  98.6736 191.3725 0010408 137.1021 223.0971 14.24344824193780
CUBESAT XI-IV (CO-57)   
1 27848U 03031J   26183.27698888  .00000271  00000+0  13794-3 0  9998
2 27848  98.6769 191.3466 0009960 153.7682 206.4003 14.23628936193521
MOZHAETS 4 (RS22)       
1 27939U 03042A   26183.63163689  .00001294  00000+0  20741-3 0  9993
2 27939  98.3466   8.4267 0010336 214.8198 230.7252 14.73495537217820
CUBESAT XI-V            
1 28895U 05043F   26183.41856719  .00001691  00000+0  27314-3 0  9991
2 28895  98.3001 339.3615 0014682 152.9722 207.2252 14.72674389103997
CUTE-1.7+APD II (CO-65) 
1 32785U 08021C   26183.56122094  .00006417  00000+0  40310-3 0  9993
2 32785  97.8284 165.3013 0008151 348.3285  11.7753 15.09600561987519
SEEDS II (CO-66)        
1 32791U 08021J   26183.47484271  .00019684  00000+0  61380-3 0  9998
2 32791  97.7520 182.1078 0001445 187.7545 172.3674 15.33279762989632
YUBILEINY (RS30)        
1 32953U 08025A   26183.63072779 -.00000097  00000+0 -76474-3 0  9996
2 32953  82.5045 345.8315 0018504 278.1378  81.7603 12.43179737821618
KKS-1 (KISEKI)          
1 33499U 09002H   26183.57124130  .00001574  00000+0  19968-3 0  9994
2 33499  98.1182 106.2572 0006555 235.0074 125.0524 14.83163808938476
SWISSCUBE               
1 35932U 09051B   26183.28877764  .00001164  00000+0  23926-3 0  9992
2 35932  98.4025  91.4397 0007061 154.9157 205.2388 14.62510844891361
BEESAT-1                
1 35933U 09051C   26183.30608930  .00000968  00000+0  20391-3 0  9997
2 35933  98.3950  91.0608 0005269 165.6666 194.4685 14.61745142891393
ITUPSAT1                
1 35935U 09051E   26182.96766707  .00000816  00000+0  17832-3 0  9995
2 35935  98.4034  89.8935 0007122 182.8141 177.3019 14.60462418890892
XIWANG-1 (HOPE-1)       
1 36122U 09072B   26183.59570308  .00000130  00000+0  45591-3 0  9999
2 36122 100.4036 137.1825 0007195 193.9245 166.1670 13.16440648795030
O/OREOS (USA 219)       
1 37224U 10062C   26183.33098779  .00002634  00000+0  25359-3 0  9994
2 37224  71.9706  46.0346 0013207  30.8219 329.3725 14.93808360118901
JUGNU                   
1 37839U 11058B   26182.78363549  .00000389  00000+0  63587-4 0  9991
2 37839  19.9591 219.7499 0018348 237.3711 278.2214 14.13780252761097
SRMSAT                  
1 37841U 11058D   26183.56263183  .00000399  00000+0  72828-4 0  9993
2 37841  19.9731 326.4081 0011821  13.5504  59.6043 14.11578853759999
STRAND-1                
1 39090U 13009E   26183.44238219  .00000331  00000+0  12561-3 0  9991
2 39090  98.3927   3.3015 0008616 177.2756 182.8479 14.37172679699256
ZACUBE-1 (TSHEPISOSAT)  
1 39417U 13066B   26183.47106021  .00003928  00000+0  30455-3 0  9992
2 39417  97.8040 145.8855 0042932 196.1986 163.7868 15.01273353683028
GOMX-1                  
1 39430U 13066Q   26183.50661862  .00001523  00000+0  23355-3 0  9990
2 39430  97.6468  23.0020 0129378  28.8657 331.9628 14.69510115672161
